{
  "type": "FeatureCollection",
  "features": [
    {
      "type": "Feature",
      "properties": {
        "norad_id": 41890,
        "name": "CYGFM07",
        "group": "weather",
        "lat": 24.194626165232215,
        "lon": 33.667011711530805,
        "alt_km": 417.62568385071336,
        "timestamp": "2025-12-16T23:36:35.828046+00:00",
        "meta_object_name": "CYGFM07",
        "meta_object_id": "2016-078G",
        "meta_epoch": "2025-12-16T07:57:26.976672",
        "meta_mean_motion": 15.50154062,
        "meta_eccentricity": 0.00101412,
        "meta_inclination": 34.9485,
        "meta_ra_of_asc_node": 357.9009,
        "meta_arg_of_pericenter": 246.4808,
        "meta_mean_anomaly": 113.4849,
        "meta_ephemeris_type": 0,
        "meta_classification_type": "U",
        "meta_norad_cat_id": 41890,
        "meta_element_set_no": 999,
        "meta_rev_at_epoch": 50051,
        "meta_bstar": 0.0003097279,
        "meta_mean_motion_dot": 0.00018033,
        "meta_mean_motion_ddot": 0,
        "tle_line1": "1 41890U 16078G   25350.33156223  .00018033  00000+0  30973-3 0  9993",
        "tle_line2": "2 41890  34.9485 357.9009 0010141 246.4808 113.4849 15.50154062500519"
      },
      "geometry": {
        "type": "Point",
        "coordinates": [
          33.667011711530805,
          24.194626165232215
        ]
      }
    },
    {
      "type": "Feature",
      "properties": {
        "norad_id": 41891,
        "name": "CYGFM03",
        "group": "weather",
        "lat": -29.357214099624088,
        "lon": -130.78910126875783,
        "alt_km": 411.7889770384354,
        "timestamp": "2025-12-16T23:36:35.828058+00:00",
        "meta_object_name": "CYGFM03",
        "meta_object_id": "2016-078H",
        "meta_epoch": "2025-12-16T07:07:37.670592",
        "meta_mean_motion": 15.50050441,
        "meta_eccentricity": 0.00095749,
        "meta_inclination": 34.9438,
        "meta_ra_of_asc_node": 0.0489,
        "meta_arg_of_pericenter": 234.2641,
        "meta_mean_anomaly": 125.719,
        "meta_ephemeris_type": 0,
        "meta_classification_type": "U",
        "meta_norad_cat_id": 41891,
        "meta_element_set_no": 999,
        "meta_rev_at_epoch": 50048,
        "meta_bstar": 0.00030609636,
        "meta_mean_motion_dot": 0.00017751,
        "meta_mean_motion_ddot": 0,
        "tle_line1": "1 41891U 16078H   25350.29696378  .00017751  00000+0  30610-3 0  9993",
        "tle_line2": "2 41891  34.9438   0.0489 0009574 234.2641 125.7190 15.50050441500481"
      },
      "geometry": {
        "type": "Point",
        "coordinates": [
          -130.78910126875783,
          -29.357214099624088
        ]
      }
    },
    {
      "type": "Feature",
      "properties": {
        "norad_id": 43010,
        "name": "FENGYUN 3D",
        "group": "weather",
        "lat": 80.16261240550801,
        "lon": -108.54040634489057,
        "alt_km": 818.8738912616382,
        "timestamp": "2025-12-16T23:36:35.828069+00:00",
        "meta_object_name": "FENGYUN 3D",
        "meta_object_id": "2017-072A",
        "meta_epoch": "2025-12-16T07:58:59.582784",
        "meta_mean_motion": 14.19685615,
        "meta_eccentricity": 0.00010904,
        "meta_inclination": 98.9888,
        "meta_ra_of_asc_node": 316.6968,
        "meta_arg_of_pericenter": 169.682,
        "meta_mean_anomaly": 190.4378,
        "meta_ephemeris_type": 0,
        "meta_classification_type": "U",
        "meta_norad_cat_id": 43010,
        "meta_element_set_no": 999,
        "meta_rev_at_epoch": 41904,
        "meta_bstar": 0.00014684873,
        "meta_mean_motion_dot": 2.64e-06,
        "meta_mean_motion_ddot": 0,
        "tle_line1": "1 43010U 17072A   25350.33263406  .00000264  00000+0  14685-3 0  9995",
        "tle_line2": "2 43010  98.9888 316.6968 0001090 169.6820 190.4378 14.19685615419047"
      },
      "geometry": {
        "type": "Point",
        "coordinates": [
          -108.54040634489057,
          80.16261240550801
        ]
      }
    },
    {
      "type": "Feature",
      "properties": {
        "norad_id": 43013,
        "name": "NOAA 20 (JPSS-1)",
        "group": "weather",
        "lat": -54.95797442259636,
        "lon": 94.53258963615366,
        "alt_km": 835.3673834816818,
        "timestamp": "2025-12-16T23:36:35.828080+00:00",
        "meta_object_name": "NOAA 20 (JPSS-1)",
        "meta_object_id": "2017-073A",
        "meta_epoch": "2025-12-16T07:16:38.756640",
        "meta_mean_motion": 14.19526703,
        "meta_eccentricity": 0.00021613,
        "meta_inclination": 98.7602,
        "meta_ra_of_asc_node": 286.561,
        "meta_arg_of_pericenter": 82.0852,
        "meta_mean_anomaly": 278.057,
        "meta_ephemeris_type": 0,
        "meta_classification_type": "U",
        "meta_norad_cat_id": 43013,
        "meta_element_set_no": 999,
        "meta_rev_at_epoch": 41852,
        "meta_bstar": 5.6991319e-05,
        "meta_mean_motion_dot": 7.6e-07,
        "meta_mean_motion_ddot": 0,
        "tle_line1": "1 43013U 17073A   25350.30322635  .00000076  00000+0  56991-4 0  9994",
        "tle_line2": "2 43013  98.7602 286.5610 0002161  82.0852 278.0570 14.19526703418525"
      },
      "geometry": {
        "type": "Point",
        "coordinates": [
          94.53258963615366,
          -54.95797442259636
        ]
      }
    },
    {
      "type": "Feature",
      "properties": {
        "norad_id": 43226,
        "name": "GOES 17",
        "group": "weather",
        "lat": -0.4591532733757991,
        "lon": -9.45801117450027,
        "alt_km": 35782.04724060144,
        "timestamp": "2025-12-16T23:36:35.828093+00:00",
        "meta_object_name": "GOES 17",
        "meta_object_id": "2018-022A",
        "meta_epoch": "2025-12-16T08:14:38.704128",
        "meta_mean_motion": 1.00271401,
        "meta_eccentricity": 0.00031213,
        "meta_inclination": 0.4678,
        "meta_ra_of_asc_node": 89.1494,
        "meta_arg_of_pericenter": 190.2601,
        "meta_mean_anomaly": 199.9917,
        "meta_ephemeris_type": 0,
        "meta_classification_type": "U",
        "meta_norad_cat_id": 43226,
        "meta_element_set_no": 999,
        "meta_rev_at_epoch": 2859,
        "meta_bstar": 0,
        "meta_mean_motion_dot": -1.59e-06,
        "meta_mean_motion_ddot": 0,
        "tle_line1": "1 43226U 18022A   25350.34350352 -.00000159  00000+0  00000+0 0  9994",
        "tle_line2": "2 43226   0.4678  89.1494 0003121 190.2601 199.9917  1.00271401 28590"
      },
      "geometry": {
        "type": "Point",
        "coordinates": [
          -9.45801117450027,
          -0.4591532733757991
        ]
      }
    },
    {
      "type": "Feature",
      "properties": {
        "norad_id": 43491,
        "name": "FENGYUN 2H",
        "group": "weather",
        "lat": 2.508768718955231,
        "lon": 159.32221430236905,
        "alt_km": 35785.76655032832,
        "timestamp": "2025-12-16T23:36:35.828106+00:00",
        "meta_object_name": "FENGYUN 2H",
        "meta_object_id": "2018-050A",
        "meta_epoch": "2025-12-16T01:45:02.684736",
        "meta_mean_motion": 1.00271356,
        "meta_eccentricity": 0.00025418,
        "meta_inclination": 2.5595,
        "meta_ra_of_asc_node": 81.2949,
        "meta_arg_of_pericenter": 167.2135,
        "meta_mean_anomaly": 302.0778,
        "meta_ephemeris_type": 0,
        "meta_classification_type": "U",
        "meta_norad_cat_id": 43491,
        "meta_element_set_no": 999,
        "meta_rev_at_epoch": 2760,
        "meta_bstar": 0,
        "meta_mean_motion_dot": -1.08e-06,
        "meta_mean_motion_ddot": 0,
        "tle_line1": "1 43491U 18050A   25350.07294774 -.00000108  00000+0  00000+0 0  9998",
        "tle_line2": "2 43491   2.5595  81.2949 0002541 167.2135 302.0778  1.00271356 27606"
      },
      "geometry": {
        "type": "Point",
        "coordinates": [
          159.32221430236905,
          2.508768718955231
        ]
      }
    },
    {
      "type": "Feature",
      "properties": {
        "norad_id": 43689,
        "name": "METOP-C",
        "group": "weather",
        "lat": 45.96403204257121,
        "lon": 39.58445415258357,
        "alt_km": 815.5448037263677,
        "timestamp": "2025-12-16T23:36:35.828119+00:00",
        "meta_object_name": "METOP-C",
        "meta_object_id": "2018-087A",
        "meta_epoch": "2025-12-16T08:11:14.297280",
        "meta_mean_motion": 14.21485761,
        "meta_eccentricity": 0.00010805,
        "meta_inclination": 98.6927,
        "meta_ra_of_asc_node": 48.0557,
        "meta_arg_of_pericenter": 32.5784,
        "meta_mean_anomaly": 327.546,
        "meta_ephemeris_type": 0,
        "meta_classification_type": "U",
        "meta_norad_cat_id": 43689,
        "meta_element_set_no": 999,
        "meta_rev_at_epoch": 36885,
        "meta_bstar": 7.9690735e-05,
        "meta_mean_motion_dot": 1.31e-06,
        "meta_mean_motion_ddot": 0,
        "tle_line1": "1 43689U 18087A   25350.34113770  .00000131  00000+0  79691-4 0  9995",
        "tle_line2": "2 43689  98.6927  48.0557 0001080  32.5784 327.5460 14.21485761368856"
      },
      "geometry": {
        "type": "Point",
        "coordinates": [
          39.58445415258357,
          45.96403204257121
        ]
      }
    }
  ]
}